NORAD_CAT_ID,OBJECT_NAME,OBJECT_TYPE,EPOCH,MEAN_MOTION,ECCENTRICITY,INCLINATION,RA_OF_ASC_NODE,ARG_OF_PERICENTER,MEAN_ANOMALY,BSTAR,MEAN_MOTION_DOT,MEAN_MOTION_DDOT,TLE_LINE0,TLE_LINE1,TLE_LINE2,SEMIMAJOR_AXIS,PERIOD,APOGEE,PERIGEE,DECAYED
51737.0,STARLINK-3509,PAYLOAD,2022-03-07 06:00:00,15.73179011,0.0001378,53.2179,71.9933,67.512,45.9141,-0.00068243,-0.00095233,0.0,0 STARLINK-3509,1 51737U 22016Z   22066.25001157 -.00095233  00000-0 -68243-3 0  9991,2 51737  53.2179  71.9933 0001378  67.5120  45.9141 15.73179011  3365,6727.955,91.534,350.747,348.89300000000014,0.0
51737.0,STARLINK-3509,PAYLOAD,2022-03-07 12:00:00,15.73091595,0.000133,53.2181,70.7569,61.1617,28.9238,0.00064945,0.00091094,0.0,0 STARLINK-3509,1 51737U 22016Z   22066.50001157  .00091094  00000-0  64945-3 0  9993,2 51737  53.2181  70.7569 0001330  61.1617  28.9238 15.73091595  3402,6728.204000000002,91.539,350.964,349.1740000000001,0.0
51737.0,STARLINK-3509,PAYLOAD,2022-03-07 22:00:00,15.731322,0.000126,53.2183,68.693,72.5913,218.5488,0.00070046,0.00098557,0.0,0 STARLINK-3509,1 51737U 22016Z   22066.91667824  .00098557  00000-0  70046-3 0  9997,2 51737  53.2183  68.6930 0001260  72.5913 218.5488 15.73132200  3479,6728.0880000000025,91.537,350.801,349.106,0.0
51737.0,STARLINK-3509,PAYLOAD,2022-03-08 14:00:01,15.73278227,0.0001298,53.2177,65.396,64.1521,44.8161,-0.00060081,-0.0008437999999999,0.0,0 STARLINK-3509,1 51737U 22016Z   22067.58334491 -.00084380  00000-0 -60081-3 0  9991,2 51737  53.2177  65.3960 0001298  64.1521  44.8161 15.73278227  3571,6727.672,91.529,350.41,348.664,0.0
51737.0,STARLINK-3509,PAYLOAD,2022-03-08 22:00:00,15.73214079,0.0001123,53.2179,63.7448,77.7858,120.1623,-0.00011038,-0.0001609,0.0,0 STARLINK-3509,1 51737U 22016Z   22067.91667824 -.00016090  00000-0 -11038-3 0  9998,2 51737  53.2179  63.7448 0001123  77.7858 120.1623 15.73214079  3101,6727.855,91.532,350.476,348.964,0.0
51737.0,STARLINK-3509,PAYLOAD,2022-03-09 06:00:00,15.73187894,0.0001234,53.2181,62.0974,68.4374,218.4563,-0.00048185,-0.00067667,0.0,0 STARLINK-3509,1 51737U 22016Z   22068.25001157 -.00067667  00000-0 -48185-3 0  9996,2 51737  53.2181  62.0974 0001234  68.4374 218.4563 15.73187894  3684,6727.93,91.534,350.625,348.964,0.0
51737.0,STARLINK-3509,PAYLOAD,2022-03-09 14:00:01,15.731694400000002,0.000111,53.2183,60.4479,63.8058,311.9705,0.00020253,0.00027861,0.0,0 STARLINK-3509,1 51737U 22016Z   22068.58334491  .00027861  00000-0  20253-3 0  9998,2 51737  53.2183  60.4479 0001110  63.8058 311.9705 15.73169440  3201,6727.982,91.535,350.594,349.1,0.0
51737.0,STARLINK-3509,PAYLOAD,2022-03-09 16:00:00,15.73175616,0.0001081,53.2185,60.0349,68.0426,59.9505,0.00014589,0.00019882,0.0,0 STARLINK-3509,1 51737U 22016Z   22068.66667824  .00019882  00000-0  14589-3 0  9995,2 51737  53.2185  60.0349 0001081  68.0426  59.9505 15.73175616  3746,6727.965,91.535,350.557,349.102,0.0
51737.0,STARLINK-3509,PAYLOAD,2022-03-09 22:00:01,15.73176305,0.0001085,53.2185,58.7968,76.8243,27.9135,0.0006276,0.00088299,0.0,0 STARLINK-3509,1 51737U 22016Z   22068.91668981  .00088299  00000-0  62760-3 0  9990,2 51737  53.2185  58.7968 0001085  76.8243  27.9135 15.73176305  3262,6727.9630000000025,91.535,350.55800000000005,349.098,0.0
51737.0,STARLINK-3509,PAYLOAD,2022-03-10 14:00:01,15.73203233,9.2e-05,53.2177,55.4995,63.1205,219.4281,0.00010577,0.00014252,0.0,0 STARLINK-3509,1 51737U 22016Z   22069.58334491  .00014252  00000-0  10577-3 0  9997,2 51737  53.2177  55.4995 0000920  63.1205 219.4281 15.73203233  3363,6727.886,91.533,350.37,349.13199999999995,0.0
51737.0,STARLINK-3509,PAYLOAD,2022-03-10 20:00:01,15.73207327,8.57e-05,53.2178,54.2611,78.9464,180.3135,0.00047229,0.00066207,0.0,0 STARLINK-3509,1 51737U 22016Z   22069.83334491  .00066207  00000-0  47229-3 0  9996,2 51737  53.2178  54.2611 0000857  78.9464 180.3135 15.73207327  3931,6727.874,91.533,350.316,349.163,0.0
51737.0,STARLINK-3509,PAYLOAD,2022-03-10 22:00:01,15.73243845,9.48e-05,53.218,53.8486,80.3728,291.1825,3.0713e-05,3.701e-05,0.0,0 STARLINK-3509,1 51737U 22016Z   22069.91668981  .00003701  00000-0  30713-4 0  9990,2 51737  53.2180  53.8486 0000948  80.3728 291.1825 15.73243845  3415,6727.77,91.531,350.273,348.997,0.0
51737.0,STARLINK-3509,PAYLOAD,2022-03-11 04:00:00,15.73236542,0.0001133,53.2181,52.6131,74.9799,273.2526,-2.5211e-05,-4.162e-05,0.0,0 STARLINK-3509,1 51737U 22016Z   22070.16667824 -.00004162  00000-0 -25211-4 0  9995,2 51737  53.2181  52.6131 0001133  74.9799 273.2526 15.73236542  3981,6727.791,91.531,350.418,348.894,0.0
51737.0,STARLINK-3509,PAYLOAD,2022-03-11 12:00:00,15.73272658,0.0001242,53.218,50.964,70.454,6.7585,-0.00024147,-0.00034475,0.0,0 STARLINK-3509,1 51737U 22016Z   22070.50001157 -.00034475  00000-0 -24147-3 0  9990,2 51737  53.2180  50.9640 0001242  70.4540   6.7585 15.73272658  4031,6727.688,91.529,350.389,348.717,0.0
51737.0,STARLINK-3509,PAYLOAD,2022-03-11 22:00:00,15.72711588,0.0001349,53.2176,48.892,77.7509,200.7301,0.0048791,0.00731965,0.0,0 STARLINK-3509,1 51737U 22016Z   22070.91667824  .00731965  00000-0  48791-2 0  9990,2 51737  53.2176  48.8920 0001349  77.7509 200.7301 15.72711588  4105,6729.288000000001,91.562,352.061,350.245,0.0
51737.0,STARLINK-3509,PAYLOAD,2022-03-12 06:00:00,15.73214785,0.0001271,53.2182,47.2528,74.6445,292.7397,-0.00049194,-0.00069138,0.0,0 STARLINK-3509,1 51737U 22016Z   22071.25001157 -.00069138  00000-0 -49194-3 0  9996,2 51737  53.2182  47.2528 0001271  74.6445 292.7397 15.73214785  4157,6727.853,91.532,350.5730000000001,348.86300000000006,0.0
51737.0,STARLINK-3509,PAYLOAD,2022-03-12 14:00:01,15.73180394,0.000108,53.2176,45.6023,78.5662,17.7299,0.00029503,0.00040952,0.0,0 STARLINK-3509,1 51737U 22016Z   22071.58334491  .00040952  00000-0  29503-3 0  9995,2 51737  53.2176  45.6023 0001080  78.5662  17.7299 15.73180394  4204,6727.951,91.534,350.543,349.089,0.0
51737.0,STARLINK-3509,PAYLOAD,2022-03-12 22:00:00,15.73232144,0.0001156,53.2179,43.9519,92.4345,92.7658,0.00012573,0.00017085,0.0,0 STARLINK-3509,1 51737U 22016Z   22071.91667824  .00017085  00000-0  12573-3 0  9991,2 51737  53.2179  43.9519 0001156  92.4345  92.7658 15.73232144  3702,6727.804,91.531,350.446,348.891,0.0
51737.0,STARLINK-3509,PAYLOAD,2022-03-13 06:00:00,15.73217057,0.000126,53.218,42.3045,79.3533,194.8125,-0.00044886,-0.00063188,0.0,0 STARLINK-3509,1 51737U 22016Z   22072.25001157 -.00063188  00000-0 -44886-3 0  9999,2 51737  53.2180  42.3045 0001260  79.3533 194.8125 15.73217057  4317,6727.847,91.532,350.559,348.86400000000015,0.0
51737.0,STARLINK-3509,PAYLOAD,2022-03-13 14:00:01,15.73163717,0.0001218,53.2182,40.654,84.1478,278.9272,-0.00033236,-0.00046932,0.0,0 STARLINK-3509,1 51737U 22016Z   22072.58334491 -.00046932  00000-0 -33236-3 0  9990,2 51737  53.2182  40.6540 0001218  84.1478 278.9272 15.73163717  3718,6727.999,91.535,350.68300000000005,349.0440000000001,0.0
51737.0,STARLINK-3509,PAYLOAD,2022-03-13 20:00:01,15.73173797,0.0001114,53.2179,39.4126,90.1521,249.6133,0.00079267,0.00111993,0.0,0 STARLINK-3509,1 51737U 22016Z   22072.83334491  .00111993  00000-0  79267-3 0  9990,2 51737  53.2179  39.4126 0001114  90.1521 249.6133 15.73173797  4408,6727.97,91.535,350.584,349.085,0.0
51737.0,STARLINK-3509,PAYLOAD,2022-03-13 22:00:01,15.73240186,0.0001273,53.218,38.9992,90.8515,1.1956,-6.6838e-05,-0.00010005,0.0,0 STARLINK-3509,1 51737U 22016Z   22072.91668981 -.00010005  00000-0 -66838-4 0  9998,2 51737  53.2180  38.9992 0001273  90.8515   1.1956 15.73240186  3715,6727.781,91.531,350.50199999999984,348.789,0.0
51737.0,STARLINK-3509,PAYLOAD,2022-03-14 12:00:00,15.73320815,0.0001039,53.2176,36.118,82.1309,75.6126,-0.00034181,-0.00048561,0.0,0 STARLINK-3509,1 51737U 22016Z   22073.50001157 -.00048561  00000-0 -34181-3 0  9993,2 51737  53.2176  36.1180 0001039  82.1309  75.6126 15.73320815  4516,6727.551,91.526,350.115,348.717,0.0
51737.0,STARLINK-3509,PAYLOAD,2022-03-14 14:00:01,15.73306342,0.0001071,53.2177,35.7048,88.285,181.791,-0.00013851,-0.00020101,0.0,0 STARLINK-3509,1 51737U 22016Z   22073.58335648 -.00020101  00000-0 -13851-3 0  9997,2 51737  53.2177  35.7048 0001071  88.2850 181.7910 15.73306342  3696,6727.592,91.527,350.17800000000005,348.736,0.0
51737.0,STARLINK-3509,PAYLOAD,2022-03-14 20:00:01,15.73275989,0.0001189,53.2179,34.4667,97.4873,149.2763,-4.2128e-06,-1.213e-05,0.0,0 STARLINK-3509,1 51737U 22016Z   22073.83334491 -.00001213  00000-0 -42128-5 0  9994,2 51737  53.2179  34.4667 0001189  97.4873 149.2763 15.73275989  3673,6727.679,91.529,350.343,348.744,0.0
51737.0,STARLINK-3509,PAYLOAD,2022-03-15 02:00:01,15.73308588,0.0001237,53.2181,33.231,91.3444,132.1833,-0.0012029,-0.00166905,0.0,0 STARLINK-3509,1 51737U 22016Z   22074.08334491 -.00166905  00000-0 -12029-2 0  9996,2 51737  53.2181  33.2310 0001237  91.3444 132.1833 15.73308588  4604,6727.5859999999975,91.527,350.283,348.61800000000005,0.0
51737.0,STARLINK-3509,PAYLOAD,2022-03-15 22:00:00,15.72981219,0.0001219,53.2189,29.1066,96.5526,169.0688,0.0012764,0.00180718,0.0,0 STARLINK-3509,1 51737U 22016Z   22074.91667824  .00180718  00000-0  12764-2 0  9999,2 51737  53.2189  29.1066 0001219  96.5526 169.0688 15.72981219  4730,6728.519,91.546,351.204,349.564,0.0
51737.0,STARLINK-3509,PAYLOAD,2022-03-16 12:00:00,15.73203741,0.0001203,53.2181,26.2216,90.0997,240.8854,0.00039591,0.00055318,0.0,0 STARLINK-3509,1 51737U 22016Z   22075.50001157  .00055318  00000-0  39591-3 0  9991,2 51737  53.2181  26.2216 0001203  90.0997 240.8854 15.73203741  4822,6727.885,91.533,350.559,348.94,0.0
51737.0,STARLINK-3509,PAYLOAD,2022-03-16 14:00:01,15.73219666,0.0001213,53.2183,25.8086,96.196,347.0204,0.00035101,0.00048971,0.0,0 STARLINK-3509,1 51737U 22016Z   22075.58334491  .00048971  00000-0  35101-3 0  9999,2 51737  53.2183  25.8086 0001213  96.1960 347.0204 15.73219666  3687,6727.839,91.532,350.52,348.88800000000015,0.0
